1 39086U 13009A   15009.92886181  .00000134  00000+0  65918-4 0 2633
2 39086  98.5418 200.0557 0002119  83.8036 276.3389 14.3225077409782
